{"type": "FeatureCollection", "features": [ {"type": "Feature", "properties": {"norad_id": 34874, "name": "COSMOS 2251 DEB", "group": "cosmos-2251-debris", "lat": 33.600890416402876, "lon": 85.79074103428668, "alt_km": 752.7705176037862, "timestamp": "2025-12-12T03:50:52.813754+00:00", "meta": {"OBJECT_NAME": "COSMOS 2251 DEB", "OBJECT_ID": "1993-036ACM", "EPOCH": "2025-12-11T07:53:49.690176", "MEAN_MOTION": 14.36300498, "ECCENTRICITY": 0.0051032, "INCLINATION": 74.0396, "RA_OF_ASC_NODE": 76.3554, "ARG_OF_PERICENTER": 102.1173, "MEAN_ANOMALY": 317.0466, "EPHEMERIS_TYPE": 0, "CLASSIFICATION_TYPE": "U", "NORAD_CAT_ID": 34874, "ELEMENT_SET_NO": 999, "REV_AT_EPOCH": 87024, "BSTAR": 0.0015454937, "MEAN_MOTION_DOT": 4.563e-05, "MEAN_MOTION_DDOT": 0}, "tle": {"line1": "1 34874U 93036ACM 25345.32904734  .00004563  00000+0  15455-2 0  9997", "line2": "2 34874  74.0396  76.3554 0051032 102.1173 317.0466 14.36300498870249"}}, "geometry": {"type": "Point", "coordinates": [85.79074103428668, 33.600890416402876]}}, {"type": "Feature", "properties": {"norad_id": 34875, "name": "COSMOS 2251 DEB", "group": "cosmos-2251-debris", "lat": 58.33768342383061, "lon": -173.0580023382974, "alt_km": 731.8861560731484, "timestamp": "2025-12-12T03:50:52.813764+00:00", "meta": {"OBJECT_NAME": "COSMOS 2251 DEB", "OBJECT_ID": "1993-036ACN", "EPOCH": "2025-12-11T11:07:01.720704", "MEAN_MOTION": 14.48918633, "ECCENTRICITY": 0.00161058, "INCLINATION": 74.0435, "RA_OF_ASC_NODE": 160.6063, "ARG_OF_PERICENTER": 284.3136, "MEAN_ANOMALY": 103.1327, "EPHEMERIS_TYPE": 0, "CLASSIFICATION_TYPE": "U", "NORAD_CAT_ID": 34875, "ELEMENT_SET_NO": 999, "REV_AT_EPOCH": 87737, "BSTAR": 0.00077167795, "MEAN_MOTION_DOT": 2.9e-05, "MEAN_MOTION_DDOT": 0}, "tle": {"line1": "1 34875U 93036ACN 25345.46321436  .00002900  00000+0  77168-3 0  9998", "line2": "2 34875  74.0435 160.6063 0016105 284.3136 103.1327 14.48918633877370"}}, "geometry": {"type": "Point", "coordinates": [-173.0580023382974, 58.33768342383061]}}, {"type": "Feature", "properties": {"norad_id": 34878, "name": "COSMOS 2251 DEB", "group": "cosmos-2251-debris", "lat": 47.889209903016926, "lon": 66.79460548867321, "alt_km": 779.5021589780781, "timestamp": "2025-12-12T03:50:52.813775+00:00", "meta": {"OBJECT_NAME": "COSMOS 2251 DEB", "OBJECT_ID": "1993-036ACR", "EPOCH": "2025-12-09T11:24:21.665664", "MEAN_MOTION": 13.44185831, "ECCENTRICITY": 0.04353122, "INCLINATION": 73.9652, "RA_OF_ASC_NODE": 52.502, "ARG_OF_PERICENTER": 36.6708, "MEAN_ANOMALY": 343.8238, "EPHEMERIS_TYPE": 0, "CLASSIFICATION_TYPE": "U", "NORAD_CAT_ID": 34878, "ELEMENT_SET_NO": 999, "REV_AT_EPOCH": 81229, "BSTAR": 0.00088072379, "MEAN_MOTION_DOT": 8.84e-06, "MEAN_MOTION_DDOT": 0}, "tle": {"line1": "1 34878U 93036ACR 25343.47525076  .00000884  00000+0  88072-3 0  9991", "line2": "2 34878  73.9652  52.5020 0435312  36.6708 343.8238 13.44185831812297"}}, "geometry": {"type": "Point", "coordinates": [66.79460548867321, 47.889209903016926]}}, {"type": "Feature", "properties": {"norad_id": 34882, "name": "COSMOS 2251 DEB", "group": "cosmos-2251-debris", "lat": -20.448386589532806, "lon": -139.4227549118604, "alt_km": 636.3811697453921, "timestamp": "2025-12-12T03:50:52.813785+00:00", "meta": {"OBJECT_NAME": "COSMOS 2251 DEB", "OBJECT_ID": "1993-036ACV", "EPOCH": "2025-12-10T02:39:44.422848", "MEAN_MOTION": 14.61589215, "ECCENTRICITY": 0.00827465, "INCLINATION": 74.0466, "RA_OF_ASC_NODE": 230.6168, "ARG_OF_PERICENTER": 358.2159, "MEAN_ANOMALY": 1.8698, "EPHEMERIS_TYPE": 0, "CLASSIFICATION_TYPE": "U", "NORAD_CAT_ID": 34882, "ELEMENT_SET_NO": 999, "REV_AT_EPOCH": 88486, "BSTAR": 0.00027513472, "MEAN_MOTION_DOT": 1.403e-05, "MEAN_MOTION_DDOT": 0}, "tle": {"line1": "1 34882U 93036ACV 25344.11093082  .00001403  00000+0  27513-3 0  9996", "line2": "2 34882  74.0466 230.6168 0082746 358.2159   1.8698 14.61589215884868"}}, "geometry": {"type": "Point", "coordinates": [-139.4227549118604, -20.448386589532806]}}, {"type": "Feature", "properties": {"norad_id": 34883, "name": "COSMOS 2251 DEB", "group": "cosmos-2251-debris", "lat": 45.511930102840154, "lon": 80.55487191426523, "alt_km": 779.4270003705124, "timestamp": "2025-12-12T03:50:52.813795+00:00", "meta": {"OBJECT_NAME": "COSMOS 2251 DEB", "OBJECT_ID": "1993-036ACW", "EPOCH": "2025-12-10T05:18:22.813632", "MEAN_MOTION": 14.51351166, "ECCENTRICITY": 0.0094898, "INCLINATION": 74.1992, "RA_OF_ASC_NODE": 67.4125, "ARG_OF_PERICENTER": 252.9159, "MEAN_ANOMALY": 106.1592, "EPHEMERIS_TYPE": 0, "CLASSIFICATION_TYPE": "U", "NORAD_CAT_ID": 34883, "ELEMENT_SET_NO": 999, "REV_AT_EPOCH": 86403, "BSTAR": 0.0070011, "MEAN_MOTION_DOT": 0.00029675, "MEAN_MOTION_DDOT": 0}, "tle": {"line1": "1 34883U 93036ACW 25344.22109738  .00029675  00000+0  70011-2 0  9996", "line2": "2 34883  74.1992  67.4125 0094898 252.9159 106.1592 14.51351166864034"}}, "geometry": {"type": "Point", "coordinates": [80.55487191426523, 45.511930102840154]}}, {"type": "Feature", "properties": {"norad_id": 34884, "name": "COSMOS 2251 DEB", "group": "cosmos-2251-debris", "lat": -71.7249621287366, "lon": -61.87802978564069, "alt_km": 606.4402024693627, "timestamp": "2025-12-12T03:50:52.813805+00:00", "meta": {"OBJECT_NAME": "COSMOS 2251 DEB", "OBJECT_ID": "1993-036ACX", "EPOCH": "2025-12-11T16:07:18.222816", "MEAN_MOTION": 14.89988435, "ECCENTRICITY": 0.00023674, "INCLINATION": 74.0169, "RA_OF_ASC_NODE": 58.8814, "ARG_OF_PERICENTER": 88.5165, "MEAN_ANOMALY": 72.77, "EPHEMERIS_TYPE": 0, "CLASSIFICATION_TYPE": "U", "NORAD_CAT_ID": 34884, "ELEMENT_SET_NO": 999, "REV_AT_EPOCH": 87789, "BSTAR": 0.0040200789, "MEAN_MOTION_DOT": 0.00038952, "MEAN_MOTION_DDOT": 0}, "tle": {"line1": "1 34884U 93036ACX 25345.67173869  .00038952  00000+0  40201-2 0  9999", "line2": "2 34884  74.0169  58.8814 0002367  88.5165  72.7700 14.89988435877892"}}, "geometry": {"type": "Point", "coordinates": [-61.87802978564069, -71.7249621287366]}}, {"type": "Feature", "properties": {"norad_id": 34885, "name": "COSMOS 2251 DEB", "group": "cosmos-2251-debris", "lat": -44.98386450698551, "lon": 20.743875927319333, "alt_km": 719.108442060693, "timestamp": "2025-12-12T03:50:52.813815+00:00", "meta": {"OBJECT_NAME": "COSMOS 2251 DEB", "OBJECT_ID": "1993-036ACY", "EPOCH": "2025-12-10T12:52:39.641088", "MEAN_MOTION": 14.51483314, "ECCENTRICITY": 0.00152154, "INCLINATION": 74.0309, "RA_OF_ASC_NODE": 187.1701, "ARG_OF_PERICENTER": 272.7275, "MEAN_ANOMALY": 113.3472, "EPHEMERIS_TYPE": 0, "CLASSIFICATION_TYPE": "U", "NORAD_CAT_ID": 34885, "ELEMENT_SET_NO": 999, "REV_AT_EPOCH": 87447, "BSTAR": 0.00091853363, "MEAN_MOTION_DOT": 3.65e-05, "MEAN_MOTION_DDOT": 0}, "tle": {"line1": "1 34885U 93036ACY 25344.53656992  .00003650  00000+0  91853-3 0  9994", "line2": "2 34885  74.0309 187.1701 0015215 272.7275 113.3472 14.51483314874479"}}, "geometry": {"type": "Point", "coordinates": [20.743875927319333, -44.98386450698551]}}, {"type": "Feature", "properties": {"norad_id": 34886, "name": "COSMOS 2251 DEB", "group": "cosmos-2251-debris", "lat": 45.31496760813595, "lon": -14.670606835550533, "alt_km": 457.99143561640085, "timestamp": "2025-12-12T03:50:52.813826+00:00", "meta": {"OBJECT_NAME": "COSMOS 2251 DEB", "OBJECT_ID": "1993-036ACZ", "EPOCH": "2025-12-06T20:50:12.525792", "MEAN_MOTION": 15.37603061, "ECCENTRICITY": 0.00307569, "INCLINATION": 73.9508, "RA_OF_ASC_NODE": 193.7093, "ARG_OF_PERICENTER": 18.7929, "MEAN_ANOMALY": 341.4404, "EPHEMERIS_TYPE": 0, "CLASSIFICATION_TYPE": "U", "NORAD_CAT_ID": 34886, "ELEMENT_SET_NO": 999, "REV_AT_EPOCH": 62908, "BSTAR": 0.0027638496, "MEAN_MOTION_DOT": 0.00105044, "MEAN_MOTION_DDOT": 0}, "tle": {"line1": "1 34886U 93036ACZ 25340.86820053  .00105044  00000+0  27638-2 0  9997", "line2": "2 34886  73.9508 193.7093 0030756  18.7929 341.4404 15.37603061629089"}}, "geometry": {"type": "Point", "coordinates": [-14.670606835550533, 45.31496760813595]}}, {"type": "Feature", "properties": {"norad_id": 34907, "name": "COSMOS 2251 DEB", "group": "cosmos-2251-debris", "lat": 45.240136764132394, "lon": 66.52997434705371, "alt_km": 425.51241994504835, "timestamp": "2025-12-12T03:50:52.813835+00:00", "meta": {"OBJECT_NAME": "COSMOS 2251 DEB", "OBJECT_ID": "1993-036ADC", "EPOCH": "2025-12-11T05:51:35.535456", "MEAN_MOTION": 15.42604827, "ECCENTRICITY": 0.00202079, "INCLINATION": 73.9708, "RA_OF_ASC_NODE": 51.673, "ARG_OF_PERICENTER": 343.886, "MEAN_ANOMALY": 16.1703, "EPHEMERIS_TYPE": 0, "CLASSIFICATION_TYPE": "U", "NORAD_CAT_ID": 34907, "ELEMENT_SET_NO": 999, "REV_AT_EPOCH": 87950, "BSTAR": 0.013629193, "MEAN_MOTION_DOT": 0.00648635, "MEAN_MOTION_DDOT": 0}, "tle": {"line1": "1 34907U 93036ADC 25345.24416129  .00648635  00000+0  13629-1 0  9995", "line2": "2 34907  73.9708  51.6730 0020207 343.8860  16.1703 15.42604827879500"}}, "geometry": {"type": "Point", "coordinates": [66.52997434705371, 45.240136764132394]}}, {"type": "Feature", "properties": {"norad_id": 34908, "name": "COSMOS 2251 DEB", "group": "cosmos-2251-debris", "lat": -40.43221105163124, "lon": 10.627331917879266, "alt_km": 769.8912567949264, "timestamp": "2025-12-12T03:50:52.813845+00:00", "meta": {"OBJECT_NAME": "COSMOS 2251 DEB", "OBJECT_ID": "1993-036ADD", "EPOCH": "2025-12-11T13:42:41.322240", "MEAN_MOTION": 14.3739267, "ECCENTRICITY": 0.00400004, "INCLINATION": 74.0593, "RA_OF_ASC_NODE": 25.8036, "ARG_OF_PERICENTER": 42.3016, "MEAN_ANOMALY": 109.0937, "EPHEMERIS_TYPE": 0, "CLASSIFICATION_TYPE": "U", "NORAD_CAT_ID": 34908, "ELEMENT_SET_NO": 999, "REV_AT_EPOCH": 87262, "BSTAR": 0.00076295919, "MEAN_MOTION_DOT": 2.275e-05, "MEAN_MOTION_DDOT": 0}, "tle": {"line1": "1 34908U 93036ADD 25345.57131160  .00002275  00000+0  76296-3 0  9996", "line2": "2 34908  74.0593  25.8036 0040000  42.3016 109.0937 14.37392670872624"}}, "geometry": {"type": "Point", "coordinates": [10.627331917879266, -40.43221105163124]}}]}